STARLINK-33708          
1 63405U 25065G   26068.44494148  .00030847  00000+0  11248-2 0  9995
2 63405  42.9991 108.3593 0001987 266.6574  93.4050 15.27608857 52809
KUIPER-00208            
1 67775U 26030M   26068.67231509  .00043852  00000+0  13883-2 0  9994
2 67775  51.8846 219.6993 0015525  57.3146 302.9333 15.32208734  5080
